{
  "type": "FeatureCollection",
  "features": [
    {
      "type": "Feature",
      "properties": {
        "norad_id": 35744,
        "name": "IRIDIUM 33 DEB",
        "group": "iridium-33-debris",
        "lat": -16.239827853907876,
        "lon": 140.99115654488728,
        "alt_km": 651.8526425247774,
        "timestamp": "2025-12-24T22:42:22.418828+00:00",
        "meta_object_name": "IRIDIUM 33 DEB",
        "meta_object_id": "1997-051RX",
        "meta_epoch": "2025-12-23T03:22:28.782624",
        "meta_mean_motion": 14.71122887,
        "meta_eccentricity": 0.00216776,
        "meta_inclination": 86.3298,
        "meta_ra_of_asc_node": 320.7354,
        "meta_arg_of_pericenter": 155.7913,
        "meta_mean_anomaly": 204.4327,
        "meta_ephemeris_type": 0,
        "meta_classification_type": "U",
        "meta_norad_cat_id": 35744,
        "meta_element_set_no": 999,
        "meta_rev_at_epoch": 87484,
        "meta_bstar": 0.0012113531,
        "meta_mean_motion_dot": 7.502e-05,
        "meta_mean_motion_ddot": 0,
        "tle_line1": "1 35744U 97051RX  25357.14061091  .00007502  00000+0  12114-2 0  9993",
        "tle_line2": "2 35744  86.3298 320.7354 0021677 155.7913 204.4327 14.71122887874843"
      },
      "geometry": {
        "type": "Point",
        "coordinates": [
          140.99115654488728,
          -16.239827853907876
        ]
      }
    },
    {
      "type": "Feature",
      "properties": {
        "norad_id": 35797,
        "name": "IRIDIUM 33 DEB",
        "group": "iridium-33-debris",
        "lat": 82.51963818274017,
        "lon": -6.425266877815743,
        "alt_km": 602.8660723158173,
        "timestamp": "2025-12-24T22:42:22.418838+00:00",
        "meta_object_name": "IRIDIUM 33 DEB",
        "meta_object_id": "1997-051SF",
        "meta_epoch": "2025-12-24T04:31:08.009760",
        "meta_mean_motion": 14.83053483,
        "meta_eccentricity": 0.00148415,
        "meta_inclination": 86.3359,
        "meta_ra_of_asc_node": 324.7113,
        "meta_arg_of_pericenter": 111.7452,
        "meta_mean_anomaly": 248.5352,
        "meta_ephemeris_type": 0,
        "meta_classification_type": "U",
        "meta_norad_cat_id": 35797,
        "meta_element_set_no": 999,
        "meta_rev_at_epoch": 87510,
        "meta_bstar": 0.0020206958,
        "meta_mean_motion_dot": 0.00016516,
        "meta_mean_motion_ddot": 0,
        "tle_line1": "1 35797U 97051SF  25358.18828715  .00016516  00000+0  20207-2 0  9997",
        "tle_line2": "2 35797  86.3359 324.7113 0014841 111.7452 248.5352 14.83053483875106"
      },
      "geometry": {
        "type": "Point",
        "coordinates": [
          -6.425266877815743,
          82.51963818274017
        ]
      }
    },
    {
      "type": "Feature",
      "properties": {
        "norad_id": 35806,
        "name": "IRIDIUM 33 DEB",
        "group": "iridium-33-debris",
        "lat": -10.332686646775002,
        "lon": 14.584991782377998,
        "alt_km": 698.5089465927431,
        "timestamp": "2025-12-24T22:42:22.418861+00:00",
        "meta_object_name": "IRIDIUM 33 DEB",
        "meta_object_id": "1997-051SQ",
        "meta_epoch": "2025-12-23T18:44:28.886496",
        "meta_mean_motion": 14.57443021,
        "meta_eccentricity": 0.00152726,
        "meta_inclination": 86.3434,
        "meta_ra_of_asc_node": 15.7661,
        "meta_arg_of_pericenter": 41.8859,
        "meta_mean_anomaly": 318.3515,
        "meta_ephemeris_type": 0,
        "meta_classification_type": "U",
        "meta_norad_cat_id": 35806,
        "meta_element_set_no": 999,
        "meta_rev_at_epoch": 86485,
        "meta_bstar": 0.0011018111,
        "meta_mean_motion_dot": 5.028e-05,
        "meta_mean_motion_ddot": 0,
        "tle_line1": "1 35806U 97051SQ  25357.78088989  .00005028  00000+0  11018-2 0  9990",
        "tle_line2": "2 35806  86.3434  15.7661 0015272  41.8859 318.3515 14.57443021864858"
      },
      "geometry": {
        "type": "Point",
        "coordinates": [
          14.584991782377998,
          -10.332686646775002
        ]
      }
    },
    {
      "type": "Feature",
      "properties": {
        "norad_id": 35809,
        "name": "IRIDIUM 33 DEB",
        "group": "iridium-33-debris",
        "lat": 81.70199103051691,
        "lon": -4.086715145738246,
        "alt_km": 637.5200530875227,
        "timestamp": "2025-12-24T22:42:22.418872+00:00",
        "meta_object_name": "IRIDIUM 33 DEB",
        "meta_object_id": "1997-051ST",
        "meta_epoch": "2025-12-21T16:13:39.380736",
        "meta_mean_motion": 14.75870585,
        "meta_eccentricity": 0.00102664,
        "meta_inclination": 86.3279,
        "meta_ra_of_asc_node": 331.2775,
        "meta_arg_of_pericenter": 205.8578,
        "meta_mean_anomaly": 154.2129,
        "meta_ephemeris_type": 0,
        "meta_classification_type": "U",
        "meta_norad_cat_id": 35809,
        "meta_element_set_no": 999,
        "meta_rev_at_epoch": 86939,
        "meta_bstar": 0.0013721853,
        "meta_mean_motion_dot": 9.452e-05,
        "meta_mean_motion_ddot": 0,
        "tle_line1": "1 35809U 97051ST  25355.67615024  .00009452  00000+0  13722-2 0  9994",
        "tle_line2": "2 35809  86.3279 331.2775 0010266 205.8578 154.2129 14.75870585869399"
      },
      "geometry": {
        "type": "Point",
        "coordinates": [
          -4.086715145738246,
          81.70199103051691
        ]
      }
    },
    {
      "type": "Feature",
      "properties": {
        "norad_id": 35846,
        "name": "IRIDIUM 33 DEB",
        "group": "iridium-33-debris",
        "lat": -51.79306544952493,
        "lon": -121.74754255128718,
        "alt_km": 757.3245794662007,
        "timestamp": "2025-12-24T22:42:22.418883+00:00",
        "meta_object_name": "IRIDIUM 33 DEB",
        "meta_object_id": "1997-051SW",
        "meta_epoch": "2025-12-24T03:19:56.863776",
        "meta_mean_motion": 14.43196634,
        "meta_eccentricity": 0.00197803,
        "meta_inclination": 86.3734,
        "meta_ra_of_asc_node": 53.9754,
        "meta_arg_of_pericenter": 134.8716,
        "meta_mean_anomaly": 225.4095,
        "meta_ephemeris_type": 0,
        "meta_classification_type": "U",
        "meta_norad_cat_id": 35846,
        "meta_element_set_no": 999,
        "meta_rev_at_epoch": 71493,
        "meta_bstar": 0.00051615927,
        "meta_mean_motion_dot": 1.758e-05,
        "meta_mean_motion_ddot": 0,
        "tle_line1": "1 35846U 97051SW  25358.13885259  .00001758  00000+0  51616-3 0  9994",
        "tle_line2": "2 35846  86.3734  53.9754 0019780 134.8716 225.4095 14.43196634714939"
      },
      "geometry": {
        "type": "Point",
        "coordinates": [
          -121.74754255128718,
          -51.79306544952493
        ]
      }
    },
    {
      "type": "Feature",
      "properties": {
        "norad_id": 35848,
        "name": "IRIDIUM 33 DEB",
        "group": "iridium-33-debris",
        "lat": 15.762513050532844,
        "lon": -170.38801585126467,
        "alt_km": 627.5541171486266,
        "timestamp": "2025-12-24T22:42:22.418893+00:00",
        "meta_object_name": "IRIDIUM 33 DEB",
        "meta_object_id": "1997-051SY",
        "meta_epoch": "2025-12-23T08:36:58.937472",
        "meta_mean_motion": 14.78845827,
        "meta_eccentricity": 0.00091619,
        "meta_inclination": 86.3897,
        "meta_ra_of_asc_node": 11.347,
        "meta_arg_of_pericenter": 152.9599,
        "meta_mean_anomaly": 207.2101,
        "meta_ephemeris_type": 0,
        "meta_classification_type": "U",
        "meta_norad_cat_id": 35848,
        "meta_element_set_no": 999,
        "meta_rev_at_epoch": 66847,
        "meta_bstar": 0.0014935306,
        "meta_mean_motion_dot": 0.00011029,
        "meta_mean_motion_ddot": 0,
        "tle_line1": "1 35848U 97051SY  25357.35901548  .00011029  00000+0  14935-2 0  9993",
        "tle_line2": "2 35848  86.3897  11.3470 0009161 152.9599 207.2101 14.78845827668472"
      },
      "geometry": {
        "type": "Point",
        "coordinates": [
          -170.38801585126467,
          15.762513050532844
        ]
      }
    },
    {
      "type": "Feature",
      "properties": {
        "norad_id": 35850,
        "name": "IRIDIUM 33 DEB",
        "group": "iridium-33-debris",
        "lat": 42.15396492864622,
        "lon": 155.37877869016486,
        "alt_km": 621.3761544195013,
        "timestamp": "2025-12-24T22:42:22.418903+00:00",
        "meta_object_name": "IRIDIUM 33 DEB",
        "meta_object_id": "1997-051TA",
        "meta_epoch": "2025-12-23T16:51:33.482304",
        "meta_mean_motion": 14.79050016,
        "meta_eccentricity": 0.00107739,
        "meta_inclination": 86.3501,
        "meta_ra_of_asc_node": 339.2572,
        "meta_arg_of_pericenter": 146.4147,
        "meta_mean_anomaly": 213.7758,
        "meta_ephemeris_type": 0,
        "meta_classification_type": "U",
        "meta_norad_cat_id": 35850,
        "meta_element_set_no": 999,
        "meta_rev_at_epoch": 71519,
        "meta_bstar": 0.001670653,
        "meta_mean_motion_dot": 0.00012399,
        "meta_mean_motion_ddot": 0,
        "tle_line1": "1 35850U 97051TA  25357.70247086  .00012399  00000+0  16707-2 0  9995",
        "tle_line2": "2 35850  86.3501 339.2572 0010773 146.4147 213.7758 14.79050016715191"
      },
      "geometry": {
        "type": "Point",
        "coordinates": [
          155.37877869016486,
          42.15396492864622
        ]
      }
    }
  ]
}